{
    "links": {
        "self": "http://www.neowsapp.com/rest/v1/neo/3781612?api_key=iIulBulltgU6a56xZRHN4H3l9WmuAYTsLGpBGhQ2"
    },
    "id": "3781612",
    "neo_reference_id": "3781612",
    "name": "(2017 SR2)",
    "designation": "2017 SR2",
    "nasa_jpl_url": "http://ssd.jpl.nasa.gov/sbdb.cgi?sstr=3781612",
    "absolute_magnitude_h": 28.6,
    "estimated_diameter": {
        "kilometers": {
            "estimated_diameter_min": 0.0050647146,
            "estimated_diameter_max": 0.0113250461
        },
        "meters": {
            "estimated_diameter_min": 5.0647145883,
            "estimated_diameter_max": 11.3250461062
        },
        "miles": {
            "estimated_diameter_min": 0.0031470668,
            "estimated_diameter_max": 0.0070370552
        },
        "feet": {
            "estimated_diameter_min": 16.61651821,
            "estimated_diameter_max": 37.155664267
        }
    },
    "is_potentially_hazardous_asteroid": false,
    "close_approach_data": [
        {
            "close_approach_date": "2007-08-23",
            "close_approach_date_full": "2007-Aug-23 21:02",
            "epoch_date_close_approach": 1187902920000,
            "relative_velocity": {
                "kilometers_per_second": "17.9295984142",
                "kilometers_per_hour": "64546.5542911067",
                "miles_per_hour": "40106.7186927157"
            },
            "miss_distance": {
                "astronomical": "0.274902606",
                "lunar": "106.937113734",
                "kilometers": "41124844.31504922",
                "miles": "25553793.312230436"
            },
            "orbiting_body": "Earth"
        },
        {
            "close_approach_date": "2017-09-20",
            "close_approach_date_full": "2017-Sep-20 20:29",
            "epoch_date_close_approach": 1505939340000,
            "relative_velocity": {
                "kilometers_per_second": "9.988195167",
                "kilometers_per_hour": "35957.5026013043",
                "miles_per_hour": "22342.5937691271"
            },
            "miss_distance": {
                "astronomical": "0.0006233522",
                "lunar": "0.2424840058",
                "kilometers": "93252.161379814",
                "miles": "57944.2061728732"
            },
            "orbiting_body": "Earth"
        },
        {
            "close_approach_date": "2017-09-21",
            "close_approach_date_full": "2017-Sep-21 02:53",
            "epoch_date_close_approach": 1505962380000,
            "relative_velocity": {
                "kilometers_per_second": "10.4907511258",
                "kilometers_per_hour": "37766.7040529002",
                "miles_per_hour": "23466.7611933145"
            },
            "miss_distance": {
                "astronomical": "0.0026130882",
                "lunar": "1.0164913098",
                "kilometers": "390912.428842134",
                "miles": "242901.7197800892"
            },
            "orbiting_body": "Moon"
        },
        {
            "close_approach_date": "2020-08-13",
            "close_approach_date_full": "2020-Aug-13 05:06",
            "epoch_date_close_approach": 1597295160000,
            "relative_velocity": {
                "kilometers_per_second": "23.8386477923",
                "kilometers_per_hour": "85819.1320524028",
                "miles_per_hour": "53324.6712466721"
            },
            "miss_distance": {
                "astronomical": "0.4775381471",
                "lunar": "185.7623392219",
                "kilometers": "71438689.649906677",
                "miles": "44389943.3594270626"
            },
            "orbiting_body": "Earth"
        }
    ],
    "orbital_data": {
        "orbit_id": "2",
        "orbit_determination_date": "2017-09-21 06:20:49",
        "first_observation_date": "2017-09-20",
        "last_observation_date": "2017-09-20",
        "data_arc_in_days": null,
        "observations_used": 23,
        "orbit_uncertainty": "6",
        "minimum_orbit_intersection": ".000227898",
        "jupiter_tisserand_invariant": "3.600",
        "epoch_osculation": "2459000.5",
        "eccentricity": ".5402374970902435",
        "semi_major_axis": "2.044300377495877",
        "inclination": ".9163759012168332",
        "ascending_node_longitude": "358.2229296579158",
        "orbital_period": "1067.61702345557",
        "perihelion_distance": ".9398926582568646",
        "perihelion_argument": "35.68455012498575",
        "aphelion_distance": "3.14870809673489",
        "perihelion_time": "2459112.403153167661",
        "mean_anomaly": "322.2663049995526",
        "mean_motion": ".3371995688442501",
        "equinox": "J2000",
        "orbit_class": {
            "orbit_class_type": "APO",
            "orbit_class_description": "Near-Earth asteroid orbits which cross the Earth’s orbit similar to that of 1862 Apollo",
            "orbit_class_range": "a (semi-major axis) > 1.0 AU; q (perihelion) < 1.017 AU"
        }
    },
    "is_sentry_object": false
}